 *******************************************************************************
Target body name: Venus (299)                     {source: DE431mx}
Center body name: Sun (10)                        {source: DE431mx}
Center-site name: BODY CENTER
*******************************************************************************
Start time      : A.D. 2018-Jan-01 00:00:00.0000 TDB
Stop  time      : A.D. 2019-Jan-02 00:00:00.0000 TDB
Step-size       : 60 minutes
*******************************************************************************
Center geodetic : 0.00000000,0.00000000,0.0000000 {E-lon(deg),Lat(deg),Alt(km)}
Center cylindric: 0.00000000,0.00000000,0.0000000 {E-lon(deg),Dxy(km),Dz(km)}
Center radii    : 696000.0 x 696000.0 x 696000.0 k{Equator, meridian, pole}   
Output units    : KM-S                                                         
Output type     : GEOMETRIC cartesian states
Output format   : 2 (position and velocity)
Reference frame : ICRF/J2000.0                                                 
Coordinate systm: Ecliptic and Mean Equinox of Reference Epoch                 
*******************************************************************************
            JDTDB,            Calendar Date (TDB),        delta-T,                      X,                      Y,                      Z,                     VX,                     VY,                     VZ,
******************************************************************************************************************************************************************************************************************
$$SOE
2458431.500000000, A.D. 2018-Nov-09 00:00:00.0000,      69.182628,  6.298375461048551E+07,  8.775165669845495E+07, -2.430582591681745E+06, -2.856071491121274E+01,  2.026871632793006E+01,  1.926268045049589E+00,
2458431.541666667, A.D. 2018-Nov-09 01:00:00.0000,      69.182628,  6.288089311428302E+07,  8.782456422569726E+07, -2.423646370864466E+06, -2.858455435419875E+01,  2.023546074228183E+01,  1.927187530121422E+00,
2458431.583333333, A.D. 2018-Nov-09 02:00:00.0000,      69.182629,  6.277794586525492E+07,  8.789735198176222E+07, -2.416706844593577E+06, -2.860835536415052E+01,  2.020217679234678E+01,  1.928104407937453E+00,
2458431.625000000, A.D. 2018-Nov-09 03:00:00.0000,      69.182630,  6.267491300182205E+07,  8.797001986461818E+07, -2.409764022257682E+06, -2.863211790667853E+01,  2.016886452243208E+01,  1.929018677121125E+00,
2458431.666666667, A.D. 2018-Nov-09 04:00:00.0000,      69.182630,  6.257179466252895E+07,  8.804256777239299E+07, -2.402817913250316E+06, -2.865584194744339E+01,  2.013552397688824E+01,  1.929930336299356E+00,
2458431.708333333, A.D. 2018-Nov-09 05:00:00.0000,      69.182631,  6.246859098604372E+07,  8.811499560337427E+07, -2.395868526969966E+06, -2.867952745215589E+01,  2.010215520010899E+01,  1.930839384102566E+00,
2458431.750000000, A.D. 2018-Nov-09 06:00:00.0000,      69.182632,  6.236530211115778E+07,  8.818730325600961E+07, -2.388915872820061E+06, -2.870317438657703E+01,  2.006875823653123E+01,  1.931745819164663E+00,
2458431.791666667, A.D. 2018-Nov-09 07:00:00.0000,      69.182632,  6.226192817678574E+07,  8.825949062890652E+07, -2.381959960208908E+06, -2.872678271651807E+01,  2.003533313063501E+01,  1.932649640123058E+00,
2458431.833333333, A.D. 2018-Nov-09 08:00:00.0000,      69.182633,  6.215846932196520E+07,  8.833155762083282E+07, -2.375000798549734E+06, -2.875035240784063E+01,  2.000187992694345E+01,  1.933550845618649E+00,
2458431.875000000, A.D. 2018-Nov-09 09:00:00.0000,      69.182634,  6.205492568585654E+07,  8.840350413071665E+07, -2.368038397260640E+06, -2.877388342645672E+01,  1.996839867002267E+01,  1.934449434295840E+00,
2458431.916666667, A.D. 2018-Nov-09 10:00:00.0000,      69.182634,  6.195129740774280E+07,  8.847533005764663E+07, -2.361072765764602E+06, -2.879737573832877E+01,  1.993488940448178E+01,  1.935345404802542E+00,
2458431.958333333, A.D. 2018-Nov-09 11:00:00.0000,      69.182635,  6.184758462702946E+07,  8.854703530087216E+07, -2.354103913489483E+06, -2.882082930946977E+01,  1.990135217497277E+01,  1.936238755790168E+00,
2458432.000000000, A.D. 2018-Nov-09 12:00:00.0000,      69.182636,  6.174378748324423E+07,  8.861861975980331E+07, -2.347131849867951E+06, -2.884424410594324E+01,  1.986778702619049E+01,  1.937129485913639E+00,
2458432.041666667, A.D. 2018-Nov-09 13:00:00.0000,      69.182636,  6.163990611603692E+07,  8.869008333401126E+07, -2.340156584337544E+06, -2.886762009386333E+01,  1.983419400287260E+01,  1.938017593831385E+00,
2458432.083333333, A.D. 2018-Nov-09 14:00:00.0000,      69.182637,  6.153594066517927E+07,  8.876142592322829E+07, -2.333178126340616E+06, -2.889095723939487E+01,  1.980057314979948E+01,  1.938903078205359E+00,
2458432.125000000, A.D. 2018-Nov-09 15:00:00.0000,      69.182638,  6.143189127056470E+07,  8.883264742734791E+07, -2.326196485324331E+06, -2.891425550875343E+01,  1.976692451179419E+01,  1.939785937701017E+00,
2458432.166666667, A.D. 2018-Nov-09 16:00:00.0000,      69.182638,  6.132775807220814E+07,  8.890374774642512E+07, -2.319211670740630E+06, -2.893751486820539E+01,  1.973324813372244E+01,  1.940666170987345E+00,
2458432.208333333, A.D. 2018-Nov-09 17:00:00.0000,      69.182639,  6.122354121024592E+07,  8.897472678067651E+07, -2.312223692046259E+06, -2.896073528406795E+01,  1.969954406049249E+01,  1.941543776736835E+00,
2458432.250000000, A.D. 2018-Nov-09 18:00:00.0000,      69.182640,  6.111924082493553E+07,  8.904558443048042E+07, -2.305232558702759E+06, -2.898391672270924E+01,  1.966581233705513E+01,  1.942418753625525E+00,
2458432.291666667, A.D. 2018-Nov-09 19:00:00.0000,      69.182640,  6.101485705665538E+07,  8.911632059637704E+07, -2.298238280176375E+06, -2.900705915054836E+01,  1.963205300840359E+01,  1.943291100332959E+00,
2458432.333333333, A.D. 2018-Nov-09 20:00:00.0000,      69.182641,  6.091039004590477E+07,  8.918693517906871E+07, -2.291240865938149E+06, -2.903016253405542E+01,  1.959826611957351E+01,  1.944160815542223E+00,
2458432.375000000, A.D. 2018-Nov-09 21:00:00.0000,      69.182642,  6.080583993330356E+07,  8.925742807941985E+07, -2.284240325463843E+06, -2.905322683975163E+01,  1.956445171564290E+01,  1.945027897939921E+00,
2458432.416666667, A.D. 2018-Nov-09 22:00:00.0000,      69.182642,  6.070120685959205E+07,  8.932779919845736E+07, -2.277236668233931E+06, -2.907625203420930E+01,  1.953060984173203E+01,  1.945892346216201E+00,
2458432.458333333, A.D. 2018-Nov-09 23:00:00.0000,      69.182643,  6.059649096563080E+07,  8.939804843737055E+07, -2.270229903733596E+06, -2.909923808405198E+01,  1.949674054300339E+01,  1.946754159064742E+00,
2458432.500000000, A.D. 2018-Nov-10 00:00:00.0000,      69.182644,  6.049169239240041E+07,  8.946817569751145E+07, -2.263220041452743E+06, -2.912218495595446E+01,  1.946284386466169E+01,  1.947613335182765E+00,
2458432.541666667, A.D. 2018-Nov-10 01:00:00.0000,      69.182645,  6.038681128100138E+07,  8.953818088039489E+07, -2.256207090885919E+06, -2.914509261664280E+01,  1.942891985195360E+01,  1.948469873270870E+00,
2458432.583333333, A.D. 2018-Nov-10 02:00:00.0000,      69.182645,  6.028184777265391E+07,  8.960806388769861E+07, -2.249191061532371E+06, -2.916796103289462E+01,  1.939496855016812E+01,  1.949323772033500E+00,
2458432.625000000, A.D. 2018-Nov-10 03:00:00.0000,      69.182646,  6.017680200869767E+07,  8.967782462126359E+07, -2.242171962896023E+06, -2.919079017153879E+01,  1.936099000463611E+01,  1.950175030178504E+00,
2458432.666666667, A.D. 2018-Nov-10 04:00:00.0000,      69.182647,  6.007167413059170E+07,  8.974746298309396E+07, -2.235149804485388E+06, -2.921357999945566E+01,  1.932698426073041E+01,  1.951023646417278E+00,
2458432.708333333, A.D. 2018-Nov-10 05:00:00.0000,      69.182647,  5.996646427991416E+07,  8.981697887535730E+07, -2.228124595813639E+06, -2.923633048357712E+01,  1.929295136386573E+01,  1.951869619464769E+00,
2458432.750000000, A.D. 2018-Nov-10 06:00:00.0000,      69.182648,  5.986117259836213E+07,  8.988637220038478E+07, -2.221096346398603E+06, -2.925904159088662E+01,  1.925889135949859E+01,  1.952712948039477E+00,
2458432.791666667, A.D. 2018-Nov-10 07:00:00.0000,      69.182649,  5.975579922775150E+07,  8.995564286067128E+07, -2.214065065762669E+06, -2.928171328841930E+01,  1.922480429312733E+01,  1.953553630863453E+00,
2458432.833333333, A.D. 2018-Nov-10 08:00:00.0000,      69.182649,  5.965034431001674E+07,  9.002479075887553E+07, -2.207030763432808E+06, -2.930434554326196E+01,  1.919069021029199E+01,  1.954391666662322E+00,
2458432.875000000, A.D. 2018-Nov-10 09:00:00.0000,      69.182650,  5.954480798721068E+07,  9.009381579782033E+07, -2.199993448940646E+06, -2.932693832255320E+01,  1.915654915657427E+01,  1.955227054165247E+00,
2458432.916666667, A.D. 2018-Nov-10 10:00:00.0000,      69.182651,  5.943919040150439E+07,  9.016271788049257E+07, -2.192953131822299E+06, -2.934949159348342E+01,  1.912238117759747E+01,  1.956059792104973E+00,
2458432.958333333, A.D. 2018-Nov-10 11:00:00.0000,      69.182651,  5.933349169518694E+07,  9.023149691004351E+07, -2.185909821618490E+06, -2.937200532329489E+01,  1.908818631902645E+01,  1.956889879217803E+00,
2458433.000000000, A.D. 2018-Nov-10 12:00:00.0000,      69.182652,  5.922771201066525E+07,  9.030015278978889E+07, -2.178863527874444E+06, -2.939447947928180E+01,  1.905396462656755E+01,  1.957717314243606E+00,
2458433.041666667, A.D. 2018-Nov-10 13:00:00.0000,      69.182653,  5.912185149046388E+07,  9.036868542320904E+07, -2.171814260139942E+06, -2.941691402879034E+01,  1.901971614596852E+01,  1.958542095925822E+00,
2458433.083333333, A.D. 2018-Nov-10 14:00:00.0000,      69.182654,  5.901591027722486E+07,  9.043709471394902E+07, -2.164762027969293E+06, -2.943930893921874E+01,  1.898544092301854E+01,  1.959364223011466E+00,
